1 08820U 76039A   03168.58249489  .00000002  00000-0  10000-3 0  9491
2 08820 109.8034 181.7362 0044485 301.3260  58.3045  6.38664419377080
